{
  "type": "FeatureCollection",
  "generator": "overpass-turbo",
  "copyright": "The data included in this document is from www.openstreetmap.org. The data is made available under ODbL.",
  "timestamp": "2026-05-03T16:25:58Z",
  "features": [
    {
      "type": "Feature",
      "properties": {
        "@id": "relation/16566",
        "admin_level": "10",
        "boundary": "administrative",
        "geographical_region": "Berliner Urstromtal",
        "name": "Mitte",
        "name:de": "Mitte",
        "name:ja": "ミッテ",
        "name:prefix": "Ortsteil",
        "name:ru": "Митте",
        "ref:DE-BE:OT": "0101",
        "source": "http://wiki.openstreetmap.org/wiki/Import/Catalogue/Kreisgrenzen_Deutschland_2005",
        "type": "boundary",
        "wikidata": "Q2013767",
        "wikipedia": "de:Berlin-Mitte"
      },
      "geometry": {
        "type": "Polygon",
        "coordinates": [
          [
            [
              13.4286516,
              52.5214498
            ],
            [
              13.4277699,
              52.5218307
            ],
            [
              13.427648,
              52.5218833
            ],
            [
              13.4255523,
              52.5227924
            ],
            [
              13.4259104,
              52.5228316
            ],
            [
              13.4260028,
              52.5229219
            ],
            [
              13.4265191,
              52.5229415
            ],
            [
              13.426501,
              52.5232938
            ],
            [
              13.4262749,
              52.5233038
            ],
            [
              13.425881,
              52.5233521
            ],
            [
              13.4254847,
              52.5234462
            ],
            [
              13.4254333,
              52.5234391
            ],
            [
              13.424745,
              52.5236397
            ],
            [
              13.4240706,
              52.5238552
            ],
            [
              13.4237733,
              52.5239632
            ],
            [
              13.422336,
              52.524527
            ],
            [
              13.4217536,
              52.5247551
            ],
            [
              13.4197996,
              52.5255288
            ],
            [
              13.4197532,
              52.5255456
            ],
            [
              13.4182495,
              52.5261801
            ],
            [
              13.41689,
              52.5267834
            ],
            [
              13.4169047,
              52.5267961
            ],
            [
              13.4167074,
              52.5268855
            ],
            [
              13.4166852,
              52.5268759
            ],
            [
              13.4163549,
              52.5270212
            ],
            [
              13.4163015,
              52.5270371
            ],
            [
              13.416291,
              52.5270404
            ],
            [
              13.4161457,
              52.5270836
            ],
            [
              13.4159556,
              52.5271846
            ],
            [
              13.4154317,
              52.5274633
            ],
            [
              13.4151743,
              52.5275359
            ],
            [
              13.4144189,
              52.5277489
            ],
            [
              13.414205,
              52.5278093
            ],
            [
              13.413349,
              52.5280506
            ],
            [
              13.4133468,
              52.5280512
            ],
            [
              13.4133165,
              52.5280598
            ],
            [
              13.4130892,
              52.5281233
            ],
            [
              13.4121847,
              52.5283752
            ],
            [
              13.4114254,
              52.5285913
            ],
            [
              13.4113137,
              52.5286212
            ],
            [
              13.4100918,
              52.5288107
            ],
            [
              13.409397,
              52.5289508
            ],
            [
              13.4081892,
              52.5292275
            ],
            [
              13.4072072,
              52.5293938
            ],
            [
              13.4068706,
              52.5294495
            ],
            [
              13.40687,
              52.5294483
            ],
            [
              13.4055857,
              52.529665
            ],
            [
              13.4059284,
              52.5303806
            ],
            [
              13.4060864,
              52.5306051
            ],
            [
              13.405991,
              52.5307807
            ],
            [
              13.4060518,
              52.5309717
            ],
            [
              13.4060978,
              52.5311425
            ],
            [
              13.4063676,
              52.5320853
            ],
            [
              13.4064243,
              52.5323485
            ],
            [
              13.4071799,
              52.5331318
            ],
            [
              13.407336,
              52.5333011
            ],
            [
              13.4081809,
              52.5341755
            ],
            [
              13.4083499,
              52.5343479
            ],
            [
              13.4078027,
              52.5345645
            ],
            [
              13.4074862,
              52.5346898
            ],
            [
              13.4069773,
              52.5356029
            ],
            [
              13.4069175,
              52.5357101
            ],
            [
              13.4067482,
              52.5361014
            ],
            [
              13.4061433,
              52.5372839
            ],
            [
              13.4060989,
              52.5373722
            ],
            [
              13.4058852,
              52.537797
            ],
            [
              13.405814,
              52.5377843
            ],
            [
              13.4054616,
              52.5385026
            ],
            [
              13.4055188,
              52.5385137
            ],
            [
              13.4054153,
              52.5387206
            ],
            [
              13.405363,
              52.5387116
            ],
            [
              13.4053025,
              52.5388256
            ],
            [
              13.4053572,
              52.5388368
            ],
            [
              13.405178,
              52.5391951
            ],
            [
              13.4047046,
              52.5401877
            ],
            [
              13.4041908,
              52.5404013
            ],
            [
              13.4035279,
              52.5402134
            ],
            [
              13.4015572,
              52.5398222
            ],
            [
              13.4014108,
              52.5397801
            ],
            [
              13.4013484,
              52.5397625
            ],
            [
              13.4005501,
              52.539533
            ],
            [
              13.4004127,
              52.5394934
            ],
            [
              13.40028,
              52.5394551
            ],
            [
              13.4001073,
              52.5394061
            ],
            [
              13.399901,
              52.5393476
            ],
            [
              13.3997014,
              52.5392909
            ],
            [
              13.3994175,
              52.5392103
            ],
            [
              13.3992317,
              52.5391588
            ],
            [
              13.3990083,
              52.5390985
            ],
            [
              13.3987971,
              52.5390403
            ],
            [
              13.3981328,
              52.5388533
            ],
            [
              13.3979494,
              52.5388018
            ],
            [
              13.3978317,
              52.5387697
            ],
            [
              13.3955801,
              52.5381553
            ],
            [
              13.3931312,
              52.537447
            ],
            [
              13.3901395,
              52.5354733
            ],
            [
              13.3901143,
              52.5354558
            ],
            [
              13.3900429,
              52.5354049
            ],
            [
              13.3899925,
              52.5353663
            ],
            [
              13.3898557,
              52.5352616
            ],
            [
              13.3895384,
              52.5349816
            ],
            [
              13.3883015,
              52.5337816
            ],
            [
              13.3879277,
              52.5332651
            ],
            [
              13.3877416,
              52.5331793
            ],
            [
              13.3862526,
              52.53429
            ],
            [
              13.3849179,
              52.5354542
            ],
            [
              13.3831012,
              52.5369416
            ],
            [
              13.3821339,
              52.5377677
            ],
            [
              13.3800653,
              52.5397546
            ],
            [
              13.3798263,
              52.5400673
            ],
            [
              13.379742,
              52.5401484
            ],
            [
              13.3794935,
              52.5401369
            ],
            [
              13.376334,
              52.5382131
            ],
            [
              13.376127,
              52.5380868
            ],
            [
              13.3761674,
              52.5380617
            ],
            [
              13.3749244,
              52.537325
            ],
            [
              13.374555,
              52.537033
            ],
            [
              13.3741528,
              52.5372778
            ],
            [
              13.3737572,
              52.5375186
            ],
            [
              13.3737266,
              52.5375389
            ],
            [
              13.3729884,
              52.5380288
            ],
            [
              13.369537,
              52.5364183
            ],
            [
              13.3686093,
              52.5359913
            ],
            [
              13.3685334,
              52.536057
            ],
            [
              13.3678819,
              52.5366213
            ],
            [
              13.3667012,
              52.5360631
            ],
            [
              13.3665589,
              52.5359129
            ],
            [
              13.3658989,
              52.5356771
            ],
            [
              13.3662455,
              52.5353543
            ],
            [
              13.3662667,
              52.5353346
            ],
            [
              13.3666225,
              52.5350032
            ],
            [
              13.3666276,
              52.5349984
            ],
            [
              13.3677136,
              52.5339868
            ],
            [
              13.3683389,
              52.5333754
            ],
            [
              13.3684815,
              52.5333023
            ],
            [
              13.3688855,
              52.5329094
            ],
            [
              13.3692257,
              52.5325525
            ],
            [
              13.3692464,
              52.5325375
            ],
            [
              13.36938,
              52.5324407
            ],
            [
              13.3697794,
              52.5319836
            ],
            [
              13.3701074,
              52.5315524
            ],
            [
              13.3705492,
              52.530946
            ],
            [
              13.3706263,
              52.530836
            ],
            [
              13.3708157,
              52.5305776
            ],
            [
              13.370997,
              52.5303427
            ],
            [
              13.3711677,
              52.5301632
            ],
            [
              13.3718926,
              52.5294259
            ],
            [
              13.3723307,
              52.5290068
            ],
            [
              13.3730627,
              52.5284107
            ],
            [
              13.3734264,
              52.5280606
            ],
            [
              13.3735728,
              52.5278868
            ],
            [
              13.3735904,
              52.527864
            ],
            [
              13.3736395,
              52.5278007
            ],
            [
              13.3737272,
              52.5276291
            ],
            [
              13.3737789,
              52.5275278
            ],
            [
              13.373847,
              52.5273447
            ],
            [
              13.3738563,
              52.5271365
            ],
            [
              13.3738047,
              52.5268662
            ],
            [
              13.3736608,
              52.5266924
            ],
            [
              13.3734103,
              52.5265082
            ],
            [
              13.3733561,
              52.5265017
            ],
            [
              13.3715851,
              52.5265049
            ],
            [
              13.3715848,
              52.526496
            ],
            [
              13.3715728,
              52.5264893
            ],
            [
              13.3715323,
              52.5264891
            ],
            [
              13.3715195,
              52.5264971
            ],
            [
              13.3715195,
              52.5265052
            ],
            [
              13.3710784,
              52.5265056
            ],
            [
              13.3710528,
              52.5264918
            ],
            [
              13.3710483,
              52.5258548
            ],
            [
              13.3710485,
              52.5257681
            ],
            [
              13.3710481,
              52.5255795
            ],
            [
              13.3710418,
              52.5253881
            ],
            [
              13.3710363,
              52.5252239
            ],
            [
              13.3716961,
              52.5248267
            ],
            [
              13.3717855,
              52.5228009
            ],
            [
              13.3719072,
              52.5228041
            ],
            [
              13.3721112,
              52.5228053
            ],
            [
              13.3723078,
              52.5227958
            ],
            [
              13.3724382,
              52.5227921
            ],
            [
              13.3725625,
              52.5227835
            ],
            [
              13.3726817,
              52.5227742
            ],
            [
              13.3728545,
              52.5227564
            ],
            [
              13.3730273,
              52.5227386
            ],
            [
              13.3732179,
              52.5227069
            ],
            [
              13.3733972,
              52.5226765
            ],
            [
              13.3735791,
              52.5226334
            ],
            [
              13.3736518,
              52.5226174
            ],
            [
              13.3738034,
              52.5225738
            ],
            [
              13.3739095,
              52.5225381
            ],
            [
              13.3740076,
              52.5225074
            ],
            [
              13.3742637,
              52.5224101
            ],
            [
              13.3744843,
              52.522313
            ],
            [
              13.3745857,
              52.5222656
            ],
            [
              13.3747754,
              52.5221743
            ],
            [
              13.3749421,
              52.5220875
            ],
            [
              13.3750451,
              52.5220319
            ],
            [
              13.3752891,
              52.5218957
            ],
            [
              13.375386,
              52.5218348
            ],
            [
              13.3755709,
              52.521656
            ],
            [
              13.3756183,
              52.5216013
            ],
            [
              13.3756428,
              52.5215768
            ],
            [
              13.3758532,
              52.5213208
            ],
            [
              13.3759305,
              52.5212096
            ],
            [
              13.3759871,
              52.5209689
            ],
            [
              13.3760324,
              52.5207919
            ],
            [
              13.3761487,
              52.5203079
            ],
            [
              13.3763704,
              52.5199859
            ],
            [
              13.3765208,
              52.5198502
            ],
            [
              13.3766847,
              52.5197326
            ],
            [
              13.3767404,
              52.5196987
            ],
            [
              13.3769629,
              52.5195876
            ],
            [
              13.3770025,
              52.519565
            ],
            [
              13.3769827,
              52.51795
            ],
            [
              13.3768575,
              52.5176951
            ],
            [
              13.3769867,
              52.5174033
            ],
            [
              13.3772108,
              52.5169175
            ],
            [
              13.3772438,
              52.5168229
            ],
            [
              13.3771837,
              52.5167654
            ],
            [
              13.3770721,
              52.5167236
            ],
            [
              13.3769262,
              52.516661
            ],
            [
              13.3767631,
              52.5165774
            ],
            [
              13.3766687,
              52.5165095
            ],
            [
              13.3765915,
              52.516405
            ],
            [
              13.376567,
              52.5163453
            ],
            [
              13.3765486,
              52.5163006
            ],
            [
              13.3765769,
              52.5162016
            ],
            [
              13.3766172,
              52.5160551
            ],
            [
              13.3766945,
              52.5159349
            ],
            [
              13.3768146,
              52.5158305
            ],
            [
              13.3769605,
              52.5157626
            ],
            [
              13.377218,
              52.515679
            ],
            [
              13.377373,
              52.5156371
            ],
            [
              13.3769876,
              52.5135825
            ],
            [
              13.3768505,
              52.5129279
            ],
            [
              13.376822,
              52.5124798
            ],
            [
              13.3768188,
              52.5124089
            ],
            [
              13.3770286,
              52.5123583
            ],
            [
              13.3767099,
              52.510759
            ],
            [
              13.3767015,
              52.51072
            ],
            [
              13.3766943,
              52.5106866
            ],
            [
              13.3766888,
              52.5106616
            ],
            [
              13.3765954,
              52.5102406
            ],
            [
              13.3765808,
              52.5101679
            ],
            [
              13.3765633,
              52.5100881
            ],
            [
              13.3765301,
              52.5099505
            ],
            [
              13.3765682,
              52.50975
            ],
            [
              13.3765736,
              52.5097067
            ],
            [
              13.376578,
              52.5096466
            ],
            [
              13.3765821,
              52.5095898
            ],
            [
              13.3765973,
              52.5094216
            ],
            [
              13.3766022,
              52.5093604
            ],
            [
              13.3765976,
              52.509293
            ],
            [
              13.3766522,
              52.509055
            ],
            [
              13.3766729,
              52.5089993
            ],
            [
              13.3766972,
              52.5089476
            ],
            [
              13.376723,
              52.5089049
            ],
            [
              13.3767531,
              52.5088636
            ],
            [
              13.3767921,
              52.5088174
            ],
            [
              13.3768429,
              52.5087668
            ],
            [
              13.3769073,
              52.5087116
            ],
            [
              13.3770867,
              52.5085675
            ],
            [
              13.3771698,
              52.5085013
            ],
            [
              13.3773676,
              52.5083413
            ],
            [
              13.3776503,
              52.5079658
            ],
            [
              13.3789222,
              52.5069995
            ],
            [
              13.3817166,
              52.507134
            ],
            [
              13.3857617,
              52.5073286
            ],
            [
              13.3862476,
              52.5073575
            ],
            [
              13.3868833,
              52.5073951
            ],
            [
              13.3898682,
              52.5075711
            ],
            [
              13.390484,
              52.5075985
            ],
            [
              13.3906557,
              52.5076088
            ],
            [
              13.3922257,
              52.5077033
            ],
            [
              13.3927738,
              52.5077409
            ],
            [
              13.3928354,
              52.5077446
            ],
            [
              13.3932494,
              52.5077697
            ],
            [
              13.3936751,
              52.5077955
            ],
            [
              13.3942839,
              52.5078332
            ],
            [
              13.3981888,
              52.5080789
            ],
            [
              13.3987719,
              52.5081134
            ],
            [
              13.3987944,
              52.5080917
            ],
            [
              13.3992301,
              52.5080775
            ],
            [
              13.3997671,
              52.5088
            ],
            [
              13.3999387,
              52.5090282
            ],
            [
              13.4000254,
              52.509151
            ],
            [
              13.4001886,
              52.5093755
            ],
            [
              13.4002283,
              52.5093816
            ],
            [
              13.4009175,
              52.5091378
            ],
            [
              13.4012638,
              52.5090381
            ],
            [
              13.4021013,
              52.5087285
            ],
            [
              13.4027619,
              52.5085334
            ],
            [
              13.4036253,
              52.5081765
            ],
            [
              13.404037,
              52.5079941
            ],
            [
              13.4043168,
              52.5078766
            ],
            [
              13.4044429,
              52.5077718
            ],
            [
              13.4045782,
              52.5078856
            ],
            [
              13.4046343,
              52.5079228
            ],
            [
              13.4052837,
              52.5082102
            ],
            [
              13.4056214,
              52.5079615
            ],
            [
              13.4057965,
              52.5078345
            ],
            [
              13.4059383,
              52.5077299
            ],
            [
              13.4064044,
              52.5073853
            ],
            [
              13.4073589,
              52.5066478
            ],
            [
              13.4074002,
              52.5066723
            ],
            [
              13.4078501,
              52.5063267
            ],
            [
              13.4080301,
              52.5061832
            ],
            [
              13.4099694,
              52.5069278
            ],
            [
              13.4108939,
              52.5057255
            ],
            [
              13.4115252,
              52.5048911
            ],
            [
              13.413773,
              52.5041375
            ],
            [
              13.4139111,
              52.5040911
            ],
            [
              13.4140723,
              52.5040371
            ],
            [
              13.4143901,
              52.5044172
            ],
            [
              13.4146097,
              52.5046798
            ],
            [
              13.4145925,
              52.5047921
            ],
            [
              13.4146075,
              52.5047981
            ],
            [
              13.4148175,
              52.5048825
            ],
            [
              13.4149072,
              52.5049185
            ],
            [
              13.416392,
              52.5045068
            ],
            [
              13.4164358,
              52.5044945
            ],
            [
              13.4166273,
              52.5044415
            ],
            [
              13.4166876,
              52.5044242
            ],
            [
              13.416704,
              52.5044196
            ],
            [
              13.4168472,
              52.5043798
            ],
            [
              13.4176016,
              52.5041685
            ],
            [
              13.4182136,
              52.5050177
            ],
            [
              13.4184001,
              52.5049933
            ],
            [
              13.4185186,
              52.5049867
            ],
            [
              13.4185318,
              52.504969
            ],
            [
              13.4189443,
              52.5050603
            ],
            [
              13.4189245,
              52.50508
            ],
            [
              13.4189981,
              52.5051182
            ],
            [
              13.4191101,
              52.5052037
            ],
            [
              13.4194305,
              52.5056491
            ],
            [
              13.4206174,
              52.5053214
            ],
            [
              13.4211305,
              52.5051754
            ],
            [
              13.4215419,
              52.5050785
            ],
            [
              13.4217786,
              52.5050451
            ],
            [
              13.4220787,
              52.5050273
            ],
            [
              13.4223011,
              52.5050078
            ],
            [
              13.4226642,
              52.5049872
            ],
            [
              13.423038,
              52.50498
            ],
            [
              13.4233526,
              52.5049868
            ],
            [
              13.4237378,
              52.505009
            ],
            [
              13.4239799,
              52.5050293
            ],
            [
              13.4242715,
              52.5050652
            ],
            [
              13.4243499,
              52.5050748
            ],
            [
              13.4244748,
              52.5050933
            ],
            [
              13.4246748,
              52.5051265
            ],
            [
              13.4247139,
              52.505133
            ],
            [
              13.4249569,
              52.5051819
            ],
            [
              13.4254971,
              52.5053228
            ],
            [
              13.4257206,
              52.5053929
            ],
            [
              13.4258215,
              52.5054247
            ],
            [
              13.4261207,
              52.5055508
            ],
            [
              13.4267083,
              52.5057986
            ],
            [
              13.4269722,
              52.5057312
            ],
            [
              13.4271997,
              52.5056674
            ],
            [
              13.4272346,
              52.505717
            ],
            [
              13.4273837,
              52.5059293
            ],
            [
              13.4274328,
              52.5059993
            ],
            [
              13.4274666,
              52.5060473
            ],
            [
              13.427499,
              52.5060935
            ],
            [
              13.4276139,
              52.5062578
            ],
            [
              13.427689,
              52.5063666
            ],
            [
              13.4278537,
              52.5066013
            ],
            [
              13.4279958,
              52.5068044
            ],
            [
              13.4281137,
              52.5069735
            ],
            [
              13.4283665,
              52.5073345
            ],
            [
              13.4288144,
              52.5079776
            ],
            [
              13.4290283,
              52.5080363
            ],
            [
              13.4294017,
              52.5085626
            ],
            [
              13.4292376,
              52.5086638
            ],
            [
              13.4292032,
              52.5087194
            ],
            [
              13.4291869,
              52.5088123
            ],
            [
              13.42917,
              52.5088353
            ],
            [
              13.4288927,
              52.5089711
            ],
            [
              13.4288636,
              52.5089799
            ],
            [
              13.4286637,
              52.5089922
            ],
            [
              13.4283796,
              52.5090711
            ],
            [
              13.4280901,
              52.5092781
            ],
            [
              13.4271178,
              52.5098499
            ],
            [
              13.4260485,
              52.5104788
            ],
            [
              13.4244677,
              52.5113968
            ],
            [
              13.4231813,
              52.5120816
            ],
            [
              13.4230834,
              52.5121233
            ],
            [
              13.4230325,
              52.5121199
            ],
            [
              13.4227803,
              52.5122343
            ],
            [
              13.4232333,
              52.512717
            ],
            [
              13.4238389,
              52.5133666
            ],
            [
              13.4240118,
              52.5136867
            ],
            [
              13.4240624,
              52.5137399
            ],
            [
              13.4241002,
              52.5137867
            ],
            [
              13.4243882,
              52.5141378
            ],
            [
              13.4248581,
              52.5147512
            ],
            [
              13.4250962,
              52.5150695
            ],
            [
              13.4251388,
              52.515144
            ],
            [
              13.4256734,
              52.5160708
            ],
            [
              13.4260106,
              52.5166807
            ],
            [
              13.426387,
              52.5173383
            ],
            [
              13.4264117,
              52.5173823
            ],
            [
              13.4267494,
              52.5179611
            ],
            [
              13.4263382,
              52.5180441
            ],
            [
              13.426325,
              52.5180342
            ],
            [
              13.4261515,
              52.5180693
            ],
            [
              13.4263036,
              52.5182898
            ],
            [
              13.4259489,
              52.5183762
            ],
            [
              13.4269188,
              52.5197438
            ],
            [
              13.4273894,
              52.5196195
            ],
            [
              13.427473,
              52.519607
            ],
            [
              13.4283998,
              52.5195865
            ],
            [
              13.4287208,
              52.520244
            ],
            [
              13.4291879,
              52.5212028
            ],
            [
              13.4291793,
              52.5212255
            ],
            [
              13.4286516,
              52.5214498
            ]
          ]
        ]
      },
      "id": "relation/16566"
    },
    {
      "type": "Feature",
      "properties": {
        "@id": "node/162012321",
        "@relations": [
          {
            "role": "label",
            "rel": 16566,
            "reltags": {
              "admin_level": "10",
              "boundary": "administrative",
              "geographical_region": "Berliner Urstromtal",
              "name": "Mitte",
              "name:de": "Mitte",
              "name:ja": "ミッテ",
              "name:prefix": "Ortsteil",
              "name:ru": "Митте",
              "ref:DE-BE:OT": "0101",
              "source": "http://wiki.openstreetmap.org/wiki/Import/Catalogue/Kreisgrenzen_Deutschland_2005",
              "type": "boundary",
              "wikidata": "Q2013767",
              "wikipedia": "de:Berlin-Mitte"
            }
          }
        ]
      },
      "geometry": {
        "type": "Point",
        "coordinates": [
          13.4040601,
          52.5178855
        ]
      },
      "id": "node/162012321"
    }
  ]
}