{
"type": "FeatureCollection",
"name": "berlin-mitte-epsg31468",
"crs": { "type": "name", "properties": { "name": "urn:ogc:def:crs:EPSG::31468" } },
"features": [
{ "type": "Feature", "properties": { "id": "relation/16566", "@id": "relation/16566", "@relations": null, "admin_level": "10", "boundary": "administrative", "geographical_region": "Berliner Urstromtal", "name": "Mitte", "name:de": "Mitte", "name:ja": "ミッテ", "name:prefix": "Ortsteil", "name:ru": "Митте", "ref:DE-BE:OT": "0101", "source": "http://wiki.openstreetmap.org/wiki/Import/Catalogue/Kreisgrenzen_Deutschland_2005", "type": "boundary", "wikidata": "Q2013767", "wikipedia": "de:Berlin-Mitte" }, "geometry": { "type": "Polygon", "coordinates": [ [ [ 4597074.35794619936496, 5821885.587796786800027 ], [ 4597013.676433559507132, 5821926.785354744642973 ], [ 4597005.287088304758072, 5821932.474356698803604 ], [ 4596861.050296264700592, 5822030.81608219537884 ], [ 4596885.268308228813112, 5822035.658141399733722 ], [ 4596891.340876827016473, 5822045.829668805003166 ], [ 4596926.338894587941468, 5822048.703311333432794 ], [ 4596924.33532427623868, 5822087.879010999575257 ], [ 4596908.968109490349889, 5822088.688290506601334 ], [ 4596882.128230363130569, 5822093.534105270169675 ], [ 4596855.024825468659401, 5822103.472958779893816 ], [ 4596851.551972308196127, 5822102.614020585082471 ], [ 4596804.396960796788335, 5822124.011741232126951 ], [ 4596758.153012681752443, 5822147.086439278908074 ], [ 4596737.73859484679997, 5822158.705211032181978 ], [ 4596638.954835117794573, 5822219.514363763853908 ], [ 4596598.92872142419219, 5822244.115644935518503 ], [ 4596464.622366108931601, 5822327.592625489458442 ], [ 4596461.436605128459632, 5822329.399967784993351 ], [ 4596357.998888357542455, 5822397.99274586699903 ], [ 4596264.418232006020844, 5822463.308290511369705 ], [ 4596265.38807462900877, 5822464.741000734269619 ], [ 4596251.803183877840638, 5822474.42547195777297 ], [ 4596250.317587560974061, 5822473.327702570706606 ], [ 4596227.584773058071733, 5822489.054927985183895 ], [ 4596223.926128040999174, 5822490.752953812479973 ], [ 4596223.206352622248232, 5822491.106151407584548 ], [ 4596213.251428649760783, 5822495.719386612065136 ], [ 4596200.130008490756154, 5822506.70431168563664 ], [ 4596163.967985644005239, 5822537.017241802997887 ], [ 4596146.341622297652066, 5822544.752657390199602 ], [ 4596094.613434096798301, 5822567.447544196620584 ], [ 4596079.965916319750249, 5822573.883596970699728 ], [ 4596021.34974835626781, 5822599.594329657964408 ], [ 4596021.199144095182419, 5822599.65816596057266 ], [ 4596019.124179818667471, 5822600.574793271720409 ], [ 4596003.560759637504816, 5822607.338190378621221 ], [ 4595941.631042025052011, 5822634.164847920648754 ], [ 4595889.633383648470044, 5822657.201633288525045 ], [ 4595881.988208057358861, 5822660.380270831286907 ], [ 4595798.656604036688805, 5822679.844174677506089 ], [ 4595751.202360574156046, 5822694.511531333439052 ], [ 4595668.639337595552206, 5822723.698993679136038 ], [ 4595601.639696085825562, 5822740.90261666290462 ], [ 4595578.67717940825969, 5822746.654767593368888 ], [ 4595578.639067655429244, 5822746.520450538024306 ], [ 4595491.016866832971573, 5822768.93349549267441 ], [ 4595512.72040843591094, 5822849.010903817601502 ], [ 4595522.955107249319553, 5822874.199812073260546 ], [ 4595516.100610451772809, 5822893.61249309591949 ], [ 4595519.812104222364724, 5822914.945323180407286 ], [ 4595522.563088085502386, 5822934.010943102650344 ], [ 4595538.825651310384274, 5823039.272435252554715 ], [ 4595542.102058440446854, 5823068.633500566706061 ], [ 4595591.6732565946877, 5823156.790608975104988 ], [ 4595601.897746135480702, 5823175.835130194202065 ], [ 4595657.328054159879684, 5823274.247794894501567 ], [ 4595668.420583929866552, 5823293.654486692510545 ], [ 4595630.821443144232035, 5823317.030597657896578 ], [ 4595609.074257590807974, 5823330.553536284714937 ], [ 4595572.562679500319064, 5823431.47981100063771 ], [ 4595568.272566775791347, 5823443.328729588538408 ], [ 4595555.936369376257062, 5823486.644339893013239 ], [ 4595512.329087868332863, 5823617.419967372901738 ], [ 4595509.125112027861178, 5823627.186317848972976 ], [ 4595493.704759615473449, 5823674.170880706980824 ], [ 4595488.901599802076817, 5823672.663603959605098 ], [ 4595463.434913264587522, 5823752.122394152916968 ], [ 4595467.29162850882858, 5823753.433106422424316 ], [ 4595459.820995807647705, 5823776.317894888110459 ], [ 4595456.292187305167317, 5823775.247331420890987 ], [ 4595451.940383683890104, 5823787.852057190611959 ], [ 4595455.627242946065962, 5823789.170582812279463 ], [ 4595442.69263964984566, 5823828.801503836177289 ], [ 4595408.423875168897212, 5823938.621830231510103 ], [ 4595373.103281083516777, 5823961.710195921361446 ], [ 4595328.537047576159239, 5823939.927307723090053 ], [ 4595195.68422693759203, 5823893.798806735314429 ], [ 4595185.842906316742301, 5823888.921367174014449 ], [ 4595181.647494964301586, 5823886.880770455114543 ], [ 4595127.983539686538279, 5823860.292450380511582 ], [ 4595118.747285178862512, 5823855.705177706666291 ], [ 4595109.827074226923287, 5823851.26876357011497 ], [ 4595098.216179453767836, 5823845.589102387428284 ], [ 4595084.346196912229061, 5823838.808164392597973 ], [ 4595070.926849344745278, 5823832.236372468061745 ], [ 4595051.839749437756836, 5823822.894306698814034 ], [ 4595039.345351256430149, 5823816.919369144365191 ], [ 4595024.318944833241403, 5823809.915811753831804 ], [ 4595010.115674750879407, 5823803.162019201554358 ], [ 4594965.449527682736516, 5823781.480775357224047 ], [ 4594953.117751937359571, 5823775.509216913953424 ], [ 4594945.201563509181142, 5823771.782701688818634 ], [ 4594793.763381158001721, 5823700.460575514473021 ], [ 4594629.136389718391001, 5823618.436414574272931 ], [ 4594430.389375391416252, 5823394.907547206617892 ], [ 4594428.717066893354058, 5823392.927378619089723 ], [ 4594423.981675396673381, 5823387.17039939481765 ], [ 4594420.644765719771385, 5823382.809497337788343 ], [ 4594411.587255746126175, 5823370.980722934007645 ], [ 4594390.658334451727569, 5823339.410481450147927 ], [ 4594309.302864002995193, 5823204.271081643179059 ], [ 4594285.045147785916924, 5823146.31230896525085 ], [ 4594272.601179295219481, 5823136.522430256009102 ], [ 4594169.191091347485781, 5823258.166645864024758 ], [ 4594076.14113125950098, 5823385.966933889314532 ], [ 4593949.703122560866177, 5823549.104065331630409 ], [ 4593882.311918393708766, 5823639.765804088674486 ], [ 4593737.733042886480689, 5823858.160003705881536 ], [ 4593720.852649591863155, 5823892.643791663460433 ], [ 4593714.960802225396037, 5823901.558348936960101 ], [ 4593698.126162544824183, 5823899.956262061372399 ], [ 4593487.859287078492343, 5823681.800534915179014 ], [ 4593474.083185318857431, 5823667.479200614616275 ], [ 4593476.877480600960553, 5823664.738629491068423 ], [ 4593394.106556673534214, 5823581.157912238501012 ], [ 4593369.662726676091552, 5823548.189469903707504 ], [ 4593341.855168720707297, 5823574.908314384520054 ], [ 4593314.504182890057564, 5823601.190764527767897 ], [ 4593312.385025337338448, 5823603.409996682778001 ], [ 4593261.262276334688067, 5823656.967359613627195 ], [ 4593030.498276021331549, 5823473.315505525097251 ], [ 4592968.45596419647336, 5823424.608587482012808 ], [ 4592963.167443648912013, 5823431.821294974535704 ], [ 4592917.772447154857218, 5823493.772292493842542 ], [ 4592838.839967655949295, 5823430.1429253956303 ], [ 4592829.50156738050282, 5823413.247274027206004 ], [ 4592785.217327550053596, 5823386.161641924642026 ], [ 4592809.414661907590926, 5823350.689167455770075 ], [ 4592810.894624385051429, 5823348.524400406517088 ], [ 4592835.734685520641506, 5823312.106958224438131 ], [ 4592836.090847851708531, 5823311.579419976100326 ], [ 4592911.911983321420848, 5823200.415679876692593 ], [ 4592955.63108358066529, 5823133.190098424442112 ], [ 4592965.461386498063803, 5823125.239850404672325 ], [ 4592993.704130251891911, 5823082.042161868885159 ], [ 4593017.542148298583925, 5823042.768161284737289 ], [ 4593018.97843593545258, 5823041.125779366120696 ], [ 4593028.248387310653925, 5823030.526971970684826 ], [ 4593056.315715931355953, 5822980.180201347917318 ], [ 4593079.483879769220948, 5822932.623442848213017 ], [ 4593110.745056944899261, 5822865.719074683263898 ], [ 4593116.209460555575788, 5822853.578827187418938 ], [ 4593129.608155283145607, 5822825.070989963598549 ], [ 4593142.407644705846906, 5822799.167577227577567 ], [ 4593154.370782246813178, 5822779.414859267883003 ], [ 4593205.122017567977309, 5822698.311105224303901 ], [ 4593235.7387007009238, 5822652.243535513989627 ], [ 4593286.675285246223211, 5822586.861038415692747 ], [ 4593312.09826201107353, 5822548.375434944406152 ], [ 4593322.401522920466959, 5822529.225959871895611 ], [ 4593323.644209881313145, 5822526.711757713928819 ], [ 4593327.110380431637168, 5822519.731846245937049 ], [ 4593333.425543433986604, 5822500.751333056949079 ], [ 4593337.148711508139968, 5822489.546547424048185 ], [ 4593342.158196441829205, 5822469.261115530505776 ], [ 4593343.230530322529376, 5822446.106825720518827 ], [ 4593340.301547686569393, 5822415.963990948162973 ], [ 4593330.904163897037506, 5822396.43938297405839 ], [ 4593314.294369320385158, 5822375.619853064417839 ], [ 4593310.629877392202616, 5822374.826573246158659 ], [ 4593190.434875319711864, 5822372.895967314019799 ], [ 4593190.43334492854774, 5822371.905281542800367 ], [ 4593189.633143881335855, 5822371.144291784614325 ], [ 4593186.8850490571931, 5822371.069780314341187 ], [ 4593185.999457525089383, 5822371.943420775234699 ], [ 4593185.982321840710938, 5822372.844703838229179 ], [ 4593156.046393075957894, 5822372.320161043666303 ], [ 4593154.338243033736944, 5822370.751621457748115 ], [ 4593155.379967391490936, 5822299.867136790417135 ], [ 4593155.576891122385859, 5822290.2203284567222 ], [ 4593155.948589684441686, 5822269.234383859671652 ], [ 4593155.925796898081899, 5822247.929275202564895 ], [ 4593155.8997718738392, 5822229.651729395613074 ], [ 4593201.518524336628616, 5822186.306730844080448 ], [ 4593211.872140574268997, 5821961.012423824518919 ], [ 4593220.125187931582332, 5821961.52555584628135 ], [ 4593233.968193447217345, 5821961.922399153932929 ], [ 4593247.331605481915176, 5821961.119144693948328 ], [ 4593256.189728675410151, 5821960.875810664147139 ], [ 4593264.644217552617192, 5821960.079395431093872 ], [ 4593272.754052818752825, 5821959.198519910685718 ], [ 4593284.519741895608604, 5821957.441094934940338 ], [ 4593296.285440228879452, 5821955.683698122389615 ], [ 4593309.288682200014591, 5821952.402680507861078 ], [ 4593321.522251978516579, 5821949.251746782101691 ], [ 4593333.959207721054554, 5821944.691081677563488 ], [ 4593338.927297289483249, 5821943.004720954224467 ], [ 4593349.308864573016763, 5821938.349302599206567 ], [ 4593356.585593127645552, 5821934.5141213061288 ], [ 4593363.308770895935595, 5821931.224956411868334 ], [ 4593380.896712962538004, 5821920.729525824077427 ], [ 4593396.074884553439915, 5821910.21050529461354 ], [ 4593403.05750366486609, 5821905.067462621256709 ], [ 4593416.126250782981515, 5821895.153906110674143 ], [ 4593427.624465388245881, 5821885.711344357579947 ], [ 4593434.733137685805559, 5821879.658006891608238 ], [ 4593451.58268766105175, 5821864.818794541992247 ], [ 4593458.288644860498607, 5821858.167870368808508 ], [ 4593471.217485380358994, 5821838.512176553718746 ], [ 4593474.550677970983088, 5821832.487085239961743 ], [ 4593476.265528039075434, 5821829.792693515308201 ], [ 4593491.08908127900213, 5821801.580058226361871 ], [ 4593496.571616561152041, 5821789.306965800002217 ], [ 4593500.924039654433727, 5821762.597699613310397 ], [ 4593504.374341472052038, 5821742.961666911840439 ], [ 4593513.295298905111849, 5821689.257867778651416 ], [ 4593529.026540993712842, 5821653.716199231334031 ], [ 4593539.522981989197433, 5821638.811716831289232 ], [ 4593550.897366899065673, 5821625.938716791570187 ], [ 4593554.749987829476595, 5821622.23883162252605 ], [ 4593570.088135719299316, 5821610.16503060888499 ], [ 4593572.823992539197206, 5821607.701645691879094 ], [ 4593574.909866272471845, 5821427.976058159954846 ], [ 4593566.952849434688687, 5821399.451322988606989 ], [ 4593576.342400223016739, 5821367.150318739935756 ], [ 4593592.585847048088908, 5821313.386054896749556 ], [ 4593595.026802467182279, 5821302.902741774916649 ], [ 4593591.069372701458633, 5821296.426883914507926 ], [ 4593583.58278498519212, 5821291.631231366656721 ], [ 4593573.812078542076051, 5821284.476753941737115 ], [ 4593562.918399863876402, 5821274.96336180344224 ], [ 4593556.654701978899539, 5821267.285903032869101 ], [ 4593551.636225307360291, 5821255.558273952454329 ], [ 4593550.099905191920698, 5821248.883766934275627 ], [ 4593548.945805842988193, 5821243.886199878528714 ], [ 4593551.076997677795589, 5821232.907194679602981 ], [ 4593554.123611442744732, 5821216.658442601561546 ], [ 4593559.625996736809611, 5821203.383998696692288 ], [ 4593568.00017028208822, 5821191.923056956380606 ], [ 4593578.04820562992245, 5821184.556881436146796 ], [ 4593595.705164566636086, 5821175.58840093947947 ], [ 4593606.315765991806984, 5821171.127074852585793 ], [ 4593584.517461931332946, 5820942.013925202190876 ], [ 4593576.600445539690554, 5820868.999482677318156 ], [ 4593575.617157387547195, 5820819.102831873111427 ], [ 4593575.55046234279871, 5820811.209700185805559 ], [ 4593589.900464571081102, 5820805.851281420327723 ], [ 4593571.660530699416995, 5820627.485602710396051 ], [ 4593571.173063408583403, 5820623.135224116966128 ], [ 4593570.755172804929316, 5820619.409507364965975 ], [ 4593570.434859292581677, 5820616.620653769932687 ], [ 4593564.987759394571185, 5820569.655354354530573 ], [ 4593564.150901783257723, 5820561.547175644896924 ], [ 4593563.132232131436467, 5820552.645230014808476 ], [ 4593561.170380741357803, 5820537.291592704132199 ], [ 4593564.182619570754468, 5820515.03147416934371 ], [ 4593564.641146218404174, 5820510.220514016225934 ], [ 4593565.067446566186845, 5820503.538936908356845 ], [ 4593565.466375065967441, 5820497.224159520119429 ], [ 4593566.855377704836428, 5820478.528376207686961 ], [ 4593567.317962340079248, 5820471.72505110502243 ], [ 4593567.148743966594338, 5820464.21955235209316 ], [ 4593571.360856836661696, 5820437.80821880325675 ], [ 4593572.884459407068789, 5820431.637340902350843 ], [ 4593574.643983409740031, 5820425.916203332133591 ], [ 4593576.486241491511464, 5820421.198431721888483 ], [ 4593578.617465250194073, 5820416.642007857561111 ], [ 4593581.363333539105952, 5820411.551895622164011 ], [ 4593584.919674091972411, 5820405.987487535923719 ], [ 4593589.409120953641832, 5820399.928863517008722 ], [ 4593601.894956281408668, 5820384.127420768141747 ], [ 4593607.677390361204743, 5820376.869083135388792 ], [ 4593621.446335698477924, 5820359.322353323921561 ], [ 4593641.437294914387167, 5820317.907217413187027 ], [ 4593729.845315678045154, 5820212.037384315393865 ], [ 4593919.283476409502327, 5820230.632413113489747 ], [ 4594193.50723410397768, 5820257.552106026560068 ], [ 4594226.435186206363142, 5820261.401459144428372 ], [ 4594269.515005080960691, 5820266.414546776562929 ], [ 4594471.794456380419433, 5820289.897249803878367 ], [ 4594513.544626864604652, 5820293.751519702374935 ], [ 4594525.179874114692211, 5820295.122246551327407 ], [ 4594631.569947870448232, 5820307.692674569785595 ], [ 4594668.701591926626861, 5820312.594528492540121 ], [ 4594672.875877648591995, 5820313.086951912380755 ], [ 4594700.92981057241559, 5820316.422452126629651 ], [ 4594729.776557365432382, 5820319.851344217546284 ], [ 4594771.028937872499228, 5820324.844702649861574 ], [ 4595035.615421495400369, 5820357.313535563647747 ], [ 4595075.129311223514378, 5820361.919589463621378 ], [ 4595076.703706209547818, 5820359.534668560139835 ], [ 4595106.315239161252975, 5820358.528189316391945 ], [ 4595141.214134578593075, 5820439.627064766362309 ], [ 4595152.371707347221673, 5820465.244639436714351 ], [ 4595157.992766873911023, 5820479.022661787457764 ], [ 4595168.587859584949911, 5820504.21751669421792 ], [ 4595171.269953241571784, 5820504.94856031332165 ], [ 4595218.586984816007316, 5820478.72945137321949 ], [ 4595242.313136899843812, 5820468.092476070858538 ], [ 4595299.841522918082774, 5820434.748192706145346 ], [ 4595345.112875948660076, 5820413.911354155279696 ], [ 4595404.503412150777876, 5820375.339456248097122 ], [ 4595432.849727073684335, 5820355.58784025721252 ], [ 4595452.100615539588034, 5820342.883435410447419 ], [ 4595460.888903548009694, 5820331.389097231440246 ], [ 4595469.828376311808825, 5820344.230288273654878 ], [ 4595473.55660152900964, 5820348.443630081601441 ], [ 4595517.023520004935563, 5820381.280754712410271 ], [ 4595540.489913024008274, 5820354.054791575297713 ], [ 4595552.653282505460083, 5820340.155256335623562 ], [ 4595562.507307541556656, 5820328.704118577763438 ], [ 4595594.899728732183576, 5820290.977603095583618 ], [ 4595661.304917897097766, 5820210.180454049259424 ], [ 4595664.055808561854064, 5820212.96122928429395 ], [ 4595695.352015001699328, 5820175.102644591592252 ], [ 4595707.884766819886863, 5820159.374045281670988 ], [ 4595837.935914347879589, 5820244.795795442536473 ], [ 4595903.320155249908566, 5820112.244386607781053 ], [ 4595947.999262884259224, 5820020.240105677396059 ], [ 4596102.262424852699041, 5819939.375921100378036 ], [ 4596111.740409377031028, 5819934.396780726499856 ], [ 4596122.803450210951269, 5819928.602753241546452 ], [ 4596143.552748347632587, 5819971.318850956857204 ], [ 4596157.890413519926369, 5820000.830266708508134 ], [ 4596156.477610004134476, 5820013.302836281247437 ], [ 4596157.482988671399653, 5820013.990413853898644 ], [ 4596171.55738793220371, 5820023.66102937143296 ], [ 4596177.569261182099581, 5820027.78611746057868 ], [ 4596279.282748637720942, 5819983.954671232029796 ], [ 4596282.283554380759597, 5819982.644443265162408 ], [ 4596295.401836686767638, 5819977.002456404268742 ], [ 4596299.533895935863256, 5819975.157890272326767 ], [ 4596300.657477277331054, 5819974.667916709557176 ], [ 4596310.46747116651386, 5819970.430329823866487 ], [ 4596362.151897572912276, 5819947.925304947420955 ], [ 4596401.848817841149867, 5820043.231080837547779 ], [ 4596414.565048835240304, 5820040.765021229162812 ], [ 4596422.625330931507051, 5820040.188809742219746 ], [ 4596423.560293596237898, 5820038.236975041218102 ], [ 4596451.36823348607868, 5820048.946462516672909 ], [ 4596449.980763300321996, 5820051.112017286010087 ], [ 4596454.894418988376856, 5820055.460744002833962 ], [ 4596462.311812396161258, 5820065.123753229156137 ], [ 4596483.091165928170085, 5820115.110645742155612 ], [ 4596564.395272535271943, 5820080.233828242868185 ], [ 4596599.553117563948035, 5820064.674616725184023 ], [ 4596627.698402451351285, 5820054.442901578731835 ], [ 4596643.842912959866226, 5820051.043167100287974 ], [ 4596664.257932705804706, 5820049.464107759296894 ], [ 4596679.401070466265082, 5820047.591987630352378 ], [ 4596704.099799548275769, 5820045.785857147537172 ], [ 4596729.495649420656264, 5820045.485176022164524 ], [ 4596750.841251728124917, 5820046.663097434677184 ], [ 4596776.946593381464481, 5820049.649224125780165 ], [ 4596793.339971539564431, 5820052.232332969084382 ], [ 4596813.059989418834448, 5820056.617621910758317 ], [ 4596818.362050963565707, 5820057.790870674885809 ], [ 4596826.801782880909741, 5820060.016739935614169 ], [ 4596840.308293772861362, 5820063.978942189365625 ], [ 4596842.948793570511043, 5820064.754603034816682 ], [ 4596859.340358243323863, 5820070.521418838761747 ], [ 4596895.70865123718977, 5820086.923585150390863 ], [ 4596910.729489162564278, 5820095.023310971446335 ], [ 4596917.510356080718338, 5820098.697012305259705 ], [ 4596937.547746961005032, 5820113.129418851807714 ], [ 4596976.898578180931509, 5820141.490402899682522 ], [ 4596994.964673080481589, 5820134.34521135315299 ], [ 4597010.551473001018167, 5820127.551769924350083 ], [ 4597012.811894736252725, 5820133.117553538642824 ], [ 4597022.467944422736764, 5820156.940090263262391 ], [ 4597025.647555668838322, 5820164.794828791171312 ], [ 4597027.836777742952108, 5820170.181113050319254 ], [ 4597029.93490301631391, 5820175.365234693512321 ], [ 4597037.374424027279019, 5820193.800981163978577 ], [ 4597042.233843452297151, 5820206.007873800583184 ], [ 4597052.899431116878986, 5820232.34384660422802 ], [ 4597062.100065287202597, 5820255.133394752629101 ], [ 4597069.732443006709218, 5820274.10731484927237 ], [ 4597086.10098616220057, 5820314.614963090978563 ], [ 4597115.093651757575572, 5820386.773783637210727 ], [ 4597129.486557459458709, 5820393.592831001617014 ], [ 4597153.677592218853533, 5820452.655569445341825 ], [ 4597142.313497323542833, 5820463.695248337462544 ], [ 4597139.855484590865672, 5820469.835516299121082 ], [ 4597138.544108355417848, 5820480.150439755991101 ], [ 4597137.346053315326571, 5820482.686889182776213 ], [ 4597118.220530670136213, 5820497.424296668730676 ], [ 4597116.225506115704775, 5820498.364336173981428 ], [ 4597102.626955605112016, 5820499.464206204749644 ], [ 4597083.165277771651745, 5820507.86143047735095 ], [ 4597063.05495136603713, 5820530.504971782676876 ], [ 4596995.786384764127433, 5820592.822285142727196 ], [ 4596921.808712168596685, 5820661.363786780275404 ], [ 4596812.473334266804159, 5820761.38846838939935 ], [ 4596723.639873466454446, 5820835.861881265416741 ], [ 4596716.902273485437036, 5820840.370694956742227 ], [ 4596713.454316864721477, 5820839.924230153672397 ], [ 4596696.082355213351548, 5820852.31571969203651 ], [ 4596725.77536969166249, 5820906.631600032560527 ], [ 4596765.460434044711292, 5820979.722827261313796 ], [ 4596776.494698250666261, 5821015.571557966992259 ], [ 4596779.812792515382171, 5821021.558845141902566 ], [ 4596782.276021234691143, 5821026.816864745691419 ], [ 4596801.055315465666354, 5821066.269212005659938 ], [ 4596831.605784415267408, 5821135.151241602376103 ], [ 4596847.069014287553728, 5821170.887274001725018 ], [ 4596849.797040656208992, 5821179.233908008784056 ], [ 4596884.048862317577004, 5821283.07464996073395 ], [ 4596905.596783176995814, 5821351.389761921018362 ], [ 4596929.699959025718272, 5821425.065103650093079 ], [ 4596931.279759012162685, 5821429.994073017500341 ], [ 4596952.928649935871363, 5821494.849637203849852 ], [ 4596924.834889583289623, 5821503.533052804879844 ], [ 4596923.960687615908682, 5821502.413779242895544 ], [ 4596912.106779126450419, 5821506.086500075645745 ], [ 4596921.945859752595425, 5821530.825340152718127 ], [ 4596897.679921573959291, 5821539.963041578419507 ], [ 4596960.503867519088089, 5821693.435748187825084 ], [ 4596992.719307486899197, 5821680.236916043795645 ], [ 4596998.421161786653101, 5821678.958327716216445 ], [ 4597061.372715341858566, 5821677.922404469922185 ], [ 4597081.711728163063526, 5821751.512998041696846 ], [ 4597111.302147561684251, 5821858.825386358425021 ], [ 4597110.668408387340605, 5821861.339622740633786 ], [ 4597074.35794619936496, 5821885.587796786800027 ] ] ] } },
{ "type": "Feature", "properties": { "id": "node/162012321", "@id": "node/162012321", "@relations": [ { "role": "label", "rel": 16566, "reltags": { "admin_level": "10", "boundary": "administrative", "geographical_region": "Berliner Urstromtal", "name": "Mitte", "name:de": "Mitte", "name:ja": "ミッテ", "name:prefix": "Ortsteil", "name:ru": "Митте", "ref:DE-BE:OT": "0101", "source": "http://wiki.openstreetmap.org/wiki/Import/Catalogue/Kreisgrenzen_Deutschland_2005", "type": "boundary", "wikidata": "Q2013767", "wikipedia": "de:Berlin-Mitte" } } ], "admin_level": null, "boundary": null, "geographical_region": null, "name": null, "name:de": null, "name:ja": null, "name:prefix": null, "name:ru": null, "ref:DE-BE:OT": null, "source": null, "type": null, "wikidata": null, "wikipedia": null }, "geometry": { "type": "Point", "coordinates": [ 4595413.000255041755736, 5821456.223325358703732 ] } }
]
}
